{
    "links": {
        "self": "http://www.neowsapp.com/rest/v1/neo/3831215?api_key=iIulBulltgU6a56xZRHN4H3l9WmuAYTsLGpBGhQ2"
    },
    "id": "3831215",
    "neo_reference_id": "3831215",
    "name": "(2018 TB2)",
    "designation": "2018 TB2",
    "nasa_jpl_url": "http://ssd.jpl.nasa.gov/sbdb.cgi?sstr=3831215",
    "absolute_magnitude_h": 26.9,
    "estimated_diameter": {
        "kilometers": {
            "estimated_diameter_min": 0.0110803882,
            "estimated_diameter_max": 0.0247765013
        },
        "meters": {
            "estimated_diameter_min": 11.0803882126,
            "estimated_diameter_max": 24.7765012606
        },
        "miles": {
            "estimated_diameter_min": 0.0068850319,
            "estimated_diameter_max": 0.0153953994
        },
        "feet": {
            "estimated_diameter_min": 36.3529808636,
            "estimated_diameter_max": 81.2877363957
        }
    },
    "is_potentially_hazardous_asteroid": false,
    "close_approach_data": [
        {
            "close_approach_date": "2018-09-30",
            "close_approach_date_full": "2018-Sep-30 23:39",
            "epoch_date_close_approach": 1538350740000,
            "relative_velocity": {
                "kilometers_per_second": "14.4436398107",
                "kilometers_per_hour": "51997.1033184728",
                "miles_per_hour": "32308.9778925255"
            },
            "miss_distance": {
                "astronomical": "0.0129408365",
                "lunar": "5.0339853985",
                "kilometers": "1935921.576418255",
                "miles": "1202925.887171719"
            },
            "orbiting_body": "Earth"
        }
    ],
    "orbital_data": {
        "orbit_id": "5",
        "orbit_determination_date": "2018-10-12 06:38:28",
        "first_observation_date": "2018-10-03",
        "last_observation_date": "2018-10-11",
        "data_arc_in_days": 8,
        "observations_used": 28,
        "orbit_uncertainty": "8",
        "minimum_orbit_intersection": ".0072423",
        "jupiter_tisserand_invariant": "2.938",
        "epoch_osculation": "2458400.5",
        "eccentricity": ".6828153161170759",
        "semi_major_axis": "2.778392257685115",
        "inclination": "3.631595723600542",
        "ascending_node_longitude": "12.69039130708845",
        "orbital_period": "1691.565297510675",
        "perihelion_distance": ".8812634699566169",
        "perihelion_argument": "308.0425105416788",
        "aphelion_distance": "4.675521045413612",
        "perihelion_time": "2458359.718414054177",
        "mean_anomaly": "8.679162998969968",
        "mean_motion": ".2128206345506021",
        "equinox": "J2000",
        "orbit_class": {
            "orbit_class_type": "APO",
            "orbit_class_description": "Near-Earth asteroid orbits which cross the Earth’s orbit similar to that of 1862 Apollo",
            "orbit_class_range": "a (semi-major axis) > 1.0 AU; q (perihelion) < 1.017 AU"
        }
    },
    "is_sentry_object": false
}